COMMENT,ORIGINATOR,NORAD_CAT_ID,OBJECT_NAME,OBJECT_TYPE,CLASSIFICATION_TYPE,INTLDES,EPOCH,EPOCH_MICROSECONDS,MEAN_MOTION,ECCENTRICITY,INCLINATION,RA_OF_ASC_NODE,ARG_OF_PERICENTER,MEAN_ANOMALY,EPHEMERIS_TYPE,ELEMENT_SET_NO,REV_AT_EPOCH,BSTAR,MEAN_MOTION_DOT,MEAN_MOTION_DDOT,FILE,TLE_LINE0,TLE_LINE1,TLE_LINE2,OBJECT_ID,OBJECT_NUMBER,SEMIMAJOR_AXIS,PERIOD,APOGEE,PERIGEE,DECAYED
GENERATED VIA SPACETRACK.ORG API,18 SPCS,38778,ASTRA 2F,PAYLOAD,U,12051A,2023-10-03 03:48:42,777216,1.00272422,0.0004417,0.0471,236.2261,341.5331,239.2216,0,999,3121,0,1.41e-06,0,4023690,0 ASTRA 2F,1 38778U 12051A   23276.15882844  .00000141  00000-0  00000-0 0  9998,2 38778   0.0471 236.2261 0004417 341.5331 239.2216  1.00272422 31217,2012-051A,38778,42164.553,1436.088,35805.042,35767.794,0
GENERATED VIA SPACETRACK.ORG API,18 SPCS,38778,ASTRA 2F,PAYLOAD,U,12051A,2023-10-03 19:35:42,798912,1.00273172,0.0004709,0.0734,251.1584,325.8219,117.4047,0,999,4039,0,1.41e-06,0,4023834,0 ASTRA 2F,1 38778U 12051A   23276.81646758  .00000141  00000-0  00000+0 0  9992,2 38778   0.0734 251.1584 0004709 325.8219 117.4047  1.00273172 40398,2012-051A,38778,42164.343,1436.077,35806.063,35766.353,0
GENERATED VIA SPACETRACK.ORG API,18 SPCS,38778,ASTRA 2F,PAYLOAD,U,12051A,2023-10-03 20:52:46,706592,1.00273299,0.0004704,0.0733,251.1499,326.0024,136.5523,0,999,3122,0,1.41e-06,0,4023936,0 ASTRA 2F,1 38778U 12051A   23276.86998503  .00000141  00000-0  00000-0 0  9996,2 38778   0.0733 251.1499 0004704 326.0024 136.5523  1.00273299 31227,2012-051A,38778,42164.308,1436.075,35806.007,35766.338,0
GENERATED VIA SPACETRACK.ORG API,18 SPCS,38778,ASTRA 2F,PAYLOAD,U,12051A,2023-10-04 14:04:36,484032,1.00273817,0.0004723,0.0713,250.6113,327.1988,34.5631,0,999,3123,0,1.41e-06,0,4024487,0 ASTRA 2F,1 38778U 12051A   23277.58653338  .00000141  00000-0  00000-0 0  9990,2 38778   0.0713 250.6113 0004723 327.1988  34.5631  1.00273817 31238,2012-051A,38778,42164.162,1436.068,35805.941,35766.113,0
GENERATED VIA SPACETRACK.ORG API,18 SPCS,38778,ASTRA 2F,PAYLOAD,U,12051A,2023-10-04 21:10:42,740832,1.00274042,0.0004739,0.0707,250.4681,327.9413,140.7839,0,999,3123,0,1.41e-06,0,4024820,0 ASTRA 2F,1 38778U 12051A   23277.88243913  .00000141  00000-0  00000-0 0  9997,2 38778   0.0707 250.4681 0004739 327.9413 140.7839  1.00274042 31238,2012-051A,38778,42164.099,1436.065,35805.946,35765.983,0
GENERATED VIA SPACETRACK.ORG API,18 SPCS,38778,ASTRA 2F,PAYLOAD,U,12051A,2023-10-05 02:06:44,174592,1.00274154,0.0004745,0.07,250.2451,328.3029,214.8559,0,999,4040,0,1.41e-06,0,4025058,0 ASTRA 2F,1 38778U 12051A   23278.08801128  .00000141  00000-0  00000+0 0  9997,2 38778   0.0700 250.2451 0004745 328.3029 214.8559  1.00274154 40404,2012-051A,38778,42164.068,1436.063,35805.94,35765.926,0
GENERATED VIA SPACETRACK.ORG API,18 SPCS,38778,ASTRA 2F,PAYLOAD,U,12051A,2023-10-05 07:16:07,978368,1.00274269,0.0004752,0.0696,250.1054,328.5327,292.3286,0,999,3124,0,1.41e-06,0,4025515,0 ASTRA 2F,1 38778U 12051A   23278.30287012  .00000141  00000-0  00000-0 0  9993,2 38778   0.0696 250.1054 0004752 328.5327 292.3286  1.00274269 31244,2012-051A,38778,42164.036,1436.061,35805.937,35765.864,0
GENERATED VIA SPACETRACK.ORG API,18 SPCS,38778,ASTRA 2F,PAYLOAD,U,12051A,2023-10-05 21:01:42,765888,1.00274628,0.0004762,0.0682,249.6922,329.6839,138.5561,0,999,3124,0,1.41e-06,0,4025843,0 ASTRA 2F,1 38778U 12051A   23278.87618942  .00000141  00000-0  00000-0 0  9995,2 38778   0.0682 249.6922 0004762 329.6839 138.5561  1.00274628 31243,2012-051A,38778,42163.935,1436.056,35805.878,35765.722,0
GENERATED VIA SPACETRACK.ORG API,18 SPCS,38778,ASTRA 2F,PAYLOAD,U,12051A,2023-10-06 02:11:17,564928,1.00274744,0.0004771,0.0675,249.4393,330.1421,215.9601,0,999,4041,0,1.41e-06,0,4025995,0 ASTRA 2F,1 38778U 12051A   23279.09117552  .00000141  00000-0  00000+0 0  9990,2 38778   0.0675 249.4393 0004771 330.1421 215.9601  1.00274744 40412,2012-051A,38778,42163.902,1436.055,35805.884,35765.651,0
GENERATED VIA SPACETRACK.ORG API,18 SPCS,38778,ASTRA 2F,PAYLOAD,U,12051A,2023-10-06 12:30:20,204352,1.0027499,0.0004781,0.0665,249.1237,330.6143,10.9929,0,999,3125,0,1.41e-06,0,4026447,0 ASTRA 2F,1 38778U 12051A   23279.52106718  .00000141  00000-0  00000-0 0  9991,2 38778   0.0665 249.1237 0004781 330.6143  10.9929  1.00274990 31253,2012-051A,38778,42163.834,1436.051,35805.857,35765.54,0
GENERATED VIA SPACETRACK.ORG API,18 SPCS,38778,ASTRA 2F,PAYLOAD,U,12051A,2023-10-06 20:40:42,462048,1.00266181,0.0004353,0.0658,248.8119,325.7404,139.0866,0,999,4042,0,1.41e-06,0,4026657,0 ASTRA 2F,1 38778U 12051A   23279.86160257  .00000141  00000-0  00000+0 0  9995,2 38778   0.0658 248.8119 0004353 325.7404 139.0866  1.00266181 40425,2012-051A,38778,42166.303,1436.177,35806.523,35769.813,0
GENERATED VIA SPACETRACK.ORG API,18 SPCS,38778,ASTRA 2F,PAYLOAD,U,12051A,2023-10-07 01:25:42,669696,1.00271062,0.0004343,0.0652,248.5763,324.1315,212.3787,0,999,4042,0,1.41e-06,0,4026935,0 ASTRA 2F,1 38778U 12051A   23280.05952164  .00000141  00000-0  00000+0 0  9994,2 38778   0.0652 248.5763 0004343 324.1315 212.3787  1.00271062 40425,2012-051A,38778,42164.935,1436.107,35805.112,35768.487,0
GENERATED VIA SPACETRACK.ORG API,18 SPCS,38778,ASTRA 2F,PAYLOAD,U,12051A,2023-10-07 12:34:41,459808,1.00269907,0.0004247,0.064,248.1913,324.6461,19.9484,0,999,3126,0,1.41e-06,0,4027321,0 ASTRA 2F,1 38778U 12051A   23280.52409097  .00000141  00000-0  00000-0 0  9999,2 38778   0.0640 248.1913 0004247 324.6461  19.9484  1.00269907 31267,2012-051A,38778,42165.258,1436.124,35805.031,35769.216,0
GENERATED VIA SPACETRACK.ORG API,18 SPCS,38778,ASTRA 2F,PAYLOAD,U,12051A,2023-10-07 20:43:30,887616,1.00270018,0.0004235,0.0634,247.8582,325.2531,142.2126,0,999,3126,0,1.42e-06,0,4027648,0 ASTRA 2F,1 38778U 12051A   23280.86355194  .00000142  00000-0  00000-0 0  9995,2 38778   0.0634 247.8582 0004235 325.2531 142.2126  1.00270018 31268,2012-051A,38778,42165.227,1436.122,35804.949,35769.235,0
GENERATED VIA SPACETRACK.ORG API,18 SPCS,38778,ASTRA 2F,PAYLOAD,U,12051A,2023-10-08 01:35:42,678816,1.00270092,0.0004239,0.0628,247.5862,325.8142,215.1716,0,999,4043,0,1.42e-06,0,4027851,0 ASTRA 2F,1 38778U 12051A   23281.06646619  .00000142  00000-0  00000+0 0  9992,2 38778   0.0628 247.5862 0004239 325.8142 215.1716  1.00270092 40433,2012-051A,38778,42165.207,1436.121,35804.945,35769.198,0
GENERATED VIA SPACETRACK.ORG API,18 SPCS,38778,ASTRA 2F,PAYLOAD,U,12051A,2023-10-08 12:39:15,53184,1.00270377,0.0004247,0.0618,247.1279,326.3856,21.395,0,999,3127,0,1.42e-06,0,4028261,0 ASTRA 2F,1 38778U 12051A   23281.52725756  .00000142  00000-0  00000-0 0  9994,2 38778   0.0618 247.1279 0004247 326.3856  21.3950  1.00270377 31272,2012-051A,38778,42165.127,1436.117,35804.899,35769.084,0
GENERATED VIA SPACETRACK.ORG API,18 SPCS,38778,ASTRA 2F,PAYLOAD,U,12051A,2023-10-08 19:31:54,314112,1.002705,0.0004239,0.0613,246.7719,326.9374,124.6437,0,999,3127,0,1.43e-06,0,4028564,0 ASTRA 2F,1 38778U 12051A   23281.81382308  .00000143  00000-0  00000-0 0  9999,2 38778   0.0613 246.7719 0004239 326.9374 124.6437  1.00270500 31278,2012-051A,38778,42165.092,1436.115,35804.831,35769.083,0
GENERATED VIA SPACETRACK.ORG API,18 SPCS,38778,ASTRA 2F,PAYLOAD,U,12051A,2023-10-09 04:07:43,667616,1.00270678,0.000424,0.0603,246.2846,327.8085,253.5673,0,999,4044,0,1.44e-06,0,4028825,0 ASTRA 2F,1 38778U 12051A   23282.17203319  .00000144  00000-0  00000+0 0  9993,2 38778   0.0603 246.2846 0004240 327.8085 253.5673  1.00270678 40443,2012-051A,38778,42165.042,1436.113,35804.785,35769.029,0
GENERATED VIA SPACETRACK.ORG API,18 SPCS,38778,ASTRA 2F,PAYLOAD,U,12051A,2023-10-09 12:43:40,374624,1.00270868,0.0004248,0.0595,245.9974,328.2322,22.7689,0,999,3128,0,1.44e-06,0,4029150,0 ASTRA 2F,1 38778U 12051A   23282.53032841  .00000144  00000-0  00000-0 0  9994,2 38778   0.0595 245.9974 0004248 328.2322  22.7689  1.00270868 31284,2012-051A,38778,42164.989,1436.11,35804.766,35768.942,0
GENERATED VIA SPACETRACK.ORG API,18 SPCS,38778,ASTRA 2F,PAYLOAD,U,12051A,2023-10-09 21:19:29,597664,1.0027105,0.0004241,0.0588,245.6257,328.7687,151.9114,0,999,3128,0,1.45e-06,0,4029504,0 ASTRA 2F,1 38778U 12051A   23282.88853701  .00000145  00000-0  00000-0 0  9999,2 38778   0.0588 245.6257 0004241 328.7687 151.9114  1.00271050 31281,2012-051A,38778,42164.938,1436.107,35804.685,35768.921,0
GENERATED VIA SPACETRACK.ORG API,18 SPCS,38778,ASTRA 2F,PAYLOAD,U,12051A,2023-10-10 04:34:42,545280,1.00271201,0.0004238,0.0581,245.1149,329.3605,260.9317,0,999,4045,0,1.46e-06,0,4029681,0 ASTRA 2F,1 38778U 12051A   23283.19077020  .00000146  00000-0  00000+0 0  9996,2 38778   0.0581 245.1149 0004238 329.3605 260.9317  1.00271201 40455,2012-051A,38778,42164.896,1436.105,35804.63,35768.891,0
GENERATED VIA SPACETRACK.ORG API,18 SPCS,38778,ASTRA 2F,PAYLOAD,U,12051A,2023-10-10 12:48:09,576288,1.00271371,0.0004244,0.0572,244.8336,329.8064,24.4668,0,999,3129,0,1.47e-06,0,4030143,0 ASTRA 2F,1 38778U 12051A   23283.53344417  .00000147  00000-0  00000-0 0  9993,2 38778   0.0572 244.8336 0004244 329.8064  24.4668  1.00271371 31292,2012-051A,38778,42164.848,1436.103,35804.608,35768.818,0
GENERATED VIA SPACETRACK.ORG API,18 SPCS,38778,ASTRA 2F,PAYLOAD,U,12051A,2023-10-10 20:42:29,523744,1.00271533,0.0004238,0.0566,244.4857,330.1655,143.3631,0,999,3129,0,1.48e-06,0,4030441,0 ASTRA 2F,1 38778U 12051A   23283.86284171  .00000148  00000-0  00000-0 0  9990,2 38778   0.0566 244.4857 0004238 330.1655 143.3631  1.00271533 31294,2012-051A,38778,42164.803,1436.101,35804.537,35768.798,0
GENERATED VIA SPACETRACK.ORG API,18 SPCS,38778,ASTRA 2F,PAYLOAD,U,12051A,2023-10-11 07:59:42,725760,1.00271748,0.0004235,0.0556,243.9054,331.0768,312.8007,0,999,4046,0,1.5e-06,0,4030991,0 ASTRA 2F,1 38778U 12051A   23284.33313340  .00000150  00000-0  00000+0 0  9996,2 38778   0.0556 243.9054 0004235 331.0768 312.8007  1.00271748 40465,2012-051A,38778,42164.742,1436.097,35804.464,35768.751,0
